CCSDS_OMM_VERS = 2.0
CREATION_DATE  = 
ORIGINATOR     = 

OBJECT_NAME    = ALOS (DAICHI)
OBJECT_ID      = 2006-002A
CENTER_NAME    = EARTH
REF_FRAME      = TEME
TIME_SYSTEM    = UTC
MEAN_ELEMENT_THEORY = SGP/SGP4

EPOCH          = 2026-02-02T05:42:12.995424
MEAN_MOTION    = 14.69686266
ECCENTRICITY   = .00021168
INCLINATION    = 98.1162
RA_OF_ASC_NODE = 349.3880
ARG_OF_PERICENTER = 72.2399
MEAN_ANOMALY   = 287.9038

EPHEMERIS_TYPE = 0
CLASSIFICATION_TYPE = U
NORAD_CAT_ID   = 28931
ELEMENT_SET_NO = 999
REV_AT_EPOCH   = 6827
BSTAR          = .25767555E-3
MEAN_MOTION_DOT = .1485E-4
MEAN_MOTION_DDOT = 0

CCSDS_OMM_VERS = 2.0
CREATION_DATE  = 
ORIGINATOR     = 

OBJECT_NAME    = H-2A R/B
OBJECT_ID      = 2006-002B
CENTER_NAME    = EARTH
REF_FRAME      = TEME
TIME_SYSTEM    = UTC
MEAN_ELEMENT_THEORY = SGP/SGP4

EPOCH          = 2026-02-02T07:09:03.497760
MEAN_MOTION    = 15.15701136
ECCENTRICITY   = .00532929
INCLINATION    = 98.2351
RA_OF_ASC_NODE = 177.3149
ARG_OF_PERICENTER = 2.8734
MEAN_ANOMALY   = 357.2792

EPHEMERIS_TYPE = 0
CLASSIFICATION_TYPE = U
NORAD_CAT_ID   = 28932
ELEMENT_SET_NO = 999
REV_AT_EPOCH   = 8907
BSTAR          = .38896318E-3
MEAN_MOTION_DOT = .7599E-4
MEAN_MOTION_DDOT = 0

CCSDS_OMM_VERS = 2.0
CREATION_DATE  = 
ORIGINATOR     = 

OBJECT_NAME    = RESURS-DK 1
OBJECT_ID      = 2006-021A
CENTER_NAME    = EARTH
REF_FRAME      = TEME
TIME_SYSTEM    = UTC
MEAN_ELEMENT_THEORY = SGP/SGP4

EPOCH          = 2026-02-02T05:20:40.243200
MEAN_MOTION    = 15.12522134
ECCENTRICITY   = .00050242
INCLINATION    = 69.9349
RA_OF_ASC_NODE = 328.7509
ARG_OF_PERICENTER = 210.4605
MEAN_ANOMALY   = 149.6270

EPHEMERIS_TYPE = 0
CLASSIFICATION_TYPE = U
NORAD_CAT_ID   = 29228
ELEMENT_SET_NO = 999
REV_AT_EPOCH   = 8216
BSTAR          = .17480973E-3
MEAN_MOTION_DOT = .2946E-4
MEAN_MOTION_DDOT = 0

CCSDS_OMM_VERS = 2.0
CREATION_DATE  = 
ORIGINATOR     = 

OBJECT_NAME    = CZ-4B R/B
OBJECT_ID      = 2006-046C
CENTER_NAME    = EARTH
REF_FRAME      = TEME
TIME_SYSTEM    = UTC
MEAN_ELEMENT_THEORY = SGP/SGP4

EPOCH          = 2026-02-02T02:45:49.735008
MEAN_MOTION    = 15.16506185
ECCENTRICITY   = .00343612
INCLINATION    = 97.5661
RA_OF_ASC_NODE = 78.1166
ARG_OF_PERICENTER = 33.3576
MEAN_ANOMALY   = 326.9812

EPHEMERIS_TYPE = 0
CLASSIFICATION_TYPE = U
NORAD_CAT_ID   = 29507
ELEMENT_SET_NO = 999
REV_AT_EPOCH   = 5465
BSTAR          = .21980545E-3
MEAN_MOTION_DOT = .4276E-4
MEAN_MOTION_DDOT = 0

CCSDS_OMM_VERS = 2.0
CREATION_DATE  = 
ORIGINATOR     = 

OBJECT_NAME    = CZ-2C R/B
OBJECT_ID      = 2007-010B
CENTER_NAME    = EARTH
REF_FRAME      = TEME
TIME_SYSTEM    = UTC
MEAN_ELEMENT_THEORY = SGP/SGP4

EPOCH          = 2026-02-02T06:56:42.667872
MEAN_MOTION    = 14.20233436
ECCENTRICITY   = .00596278
INCLINATION    = 98.3971
RA_OF_ASC_NODE = 148.3466
ARG_OF_PERICENTER = 38.1075
MEAN_ANOMALY   = 322.4297

EPHEMERIS_TYPE = 0
CLASSIFICATION_TYPE = U
NORAD_CAT_ID   = 31114
ELEMENT_SET_NO = 999
REV_AT_EPOCH   = 97469
BSTAR          = .72025363E-4
MEAN_MOTION_DOT = .116E-5
MEAN_MOTION_DDOT = 0

CCSDS_OMM_VERS = 2.0
CREATION_DATE  = 
ORIGINATOR     = 

OBJECT_NAME    = COSMO-SKYMED 1
OBJECT_ID      = 2007-023A
CENTER_NAME    = EARTH
REF_FRAME      = TEME
TIME_SYSTEM    = UTC
MEAN_ELEMENT_THEORY = SGP/SGP4

EPOCH          = 2026-02-02T06:58:49.440864
MEAN_MOTION    = 14.96248260
ECCENTRICITY   = .00013906
INCLINATION    = 97.8856
RA_OF_ASC_NODE = 224.0484
ARG_OF_PERICENTER = 78.4050
MEAN_ANOMALY   = 281.7327

EPHEMERIS_TYPE = 0
CLASSIFICATION_TYPE = U
NORAD_CAT_ID   = 31598
ELEMENT_SET_NO = 999
REV_AT_EPOCH   = 961
BSTAR          = .29473337E-3
MEAN_MOTION_DOT = .3267E-4
MEAN_MOTION_DDOT = 0

CCSDS_OMM_VERS = 2.0
CREATION_DATE  = 
ORIGINATOR     = 

OBJECT_NAME    = COSMOS 2428
OBJECT_ID      = 2007-029A
CENTER_NAME    = EARTH
REF_FRAME      = TEME
TIME_SYSTEM    = UTC
MEAN_ELEMENT_THEORY = SGP/SGP4

EPOCH          = 2026-02-02T03:17:19.132800
MEAN_MOTION    = 14.12927445
ECCENTRICITY   = .00068484
INCLINATION    = 70.9400
RA_OF_ASC_NODE = 277.9746
ARG_OF_PERICENTER = 316.8493
MEAN_ANOMALY   = 43.2091

EPHEMERIS_TYPE = 0
CLASSIFICATION_TYPE = U
NORAD_CAT_ID   = 31792
ELEMENT_SET_NO = 999
REV_AT_EPOCH   = 95907
BSTAR          = .23496907E-3
MEAN_MOTION_DOT = .39E-5
MEAN_MOTION_DDOT = 0

CCSDS_OMM_VERS = 2.0
CREATION_DATE  = 
ORIGINATOR     = 

OBJECT_NAME    = SL-16 R/B
OBJECT_ID      = 2007-029B
CENTER_NAME    = EARTH
REF_FRAME      = TEME
TIME_SYSTEM    = UTC
MEAN_ELEMENT_THEORY = SGP/SGP4

EPOCH          = 2026-02-02T02:01:25.789728
MEAN_MOTION    = 14.14825131
ECCENTRICITY   = .00018106
INCLINATION    = 70.9730
RA_OF_ASC_NODE = 247.2290
ARG_OF_PERICENTER = 272.9333
MEAN_ANOMALY   = 211.3282

EPHEMERIS_TYPE = 0
CLASSIFICATION_TYPE = U
NORAD_CAT_ID   = 31793
ELEMENT_SET_NO = 999
REV_AT_EPOCH   = 96033
BSTAR          = .18159146E-3
MEAN_MOTION_DOT = .303E-5
MEAN_MOTION_DDOT = 0

CCSDS_OMM_VERS = 2.0
CREATION_DATE  = 
ORIGINATOR     = 

OBJECT_NAME    = KORONAS-FOTON
OBJECT_ID      = 2009-003A
CENTER_NAME    = EARTH
REF_FRAME      = TEME
TIME_SYSTEM    = UTC
MEAN_ELEMENT_THEORY = SGP/SGP4

EPOCH          = 2026-02-02T05:20:23.504064
MEAN_MOTION    = 15.42395861
ECCENTRICITY   = .00090487
INCLINATION    = 82.4329
RA_OF_ASC_NODE = 312.7194
ARG_OF_PERICENTER = 290.2511
MEAN_ANOMALY   = 69.7762

EPHEMERIS_TYPE = 0
CLASSIFICATION_TYPE = U
NORAD_CAT_ID   = 33504
ELEMENT_SET_NO = 999
REV_AT_EPOCH   = 94027
BSTAR          = .23636366E-3
MEAN_MOTION_DOT = .10257E-3
MEAN_MOTION_DDOT = 0

CCSDS_OMM_VERS = 2.0
CREATION_DATE  = 
ORIGINATOR     = 

OBJECT_NAME    = CZ-2C R/B
OBJECT_ID      = 2011-030B
CENTER_NAME    = EARTH
REF_FRAME      = TEME
TIME_SYSTEM    = UTC
MEAN_ELEMENT_THEORY = SGP/SGP4

EPOCH          = 2026-02-01T20:58:43.487616
MEAN_MOTION    = 14.81081079
ECCENTRICITY   = .00541325
INCLINATION    = 97.8483
RA_OF_ASC_NODE = 350.8745
ARG_OF_PERICENTER = 106.3799
MEAN_ANOMALY   = 312.2435

EPHEMERIS_TYPE = 0
CLASSIFICATION_TYPE = U
NORAD_CAT_ID   = 37731
ELEMENT_SET_NO = 999
REV_AT_EPOCH   = 78479
BSTAR          = .19037853E-3
MEAN_MOTION_DOT = .1461E-4
MEAN_MOTION_DDOT = 0

CCSDS_OMM_VERS = 2.0
CREATION_DATE  = 
ORIGINATOR     = 

OBJECT_NAME    = H-2A R/B
OBJECT_ID      = 2012-025E
CENTER_NAME    = EARTH
REF_FRAME      = TEME
TIME_SYSTEM    = UTC
MEAN_ELEMENT_THEORY = SGP/SGP4

EPOCH          = 2026-02-02T06:08:21.198624
MEAN_MOTION    = 14.94851868
ECCENTRICITY   = .00464579
INCLINATION    = 98.4677
RA_OF_ASC_NODE = 357.4924
ARG_OF_PERICENTER = 69.3351
MEAN_ANOMALY   = 291.2840

EPHEMERIS_TYPE = 0
CLASSIFICATION_TYPE = U
NORAD_CAT_ID   = 38341
ELEMENT_SET_NO = 999
REV_AT_EPOCH   = 74292
BSTAR          = .33756656E-3
MEAN_MOTION_DOT = .3688E-4
MEAN_MOTION_DDOT = 0

CCSDS_OMM_VERS = 2.0
CREATION_DATE  = 
ORIGINATOR     = 

OBJECT_NAME    = SHIJIAN-16 (SJ-16)
OBJECT_ID      = 2013-057A
CENTER_NAME    = EARTH
REF_FRAME      = TEME
TIME_SYSTEM    = UTC
MEAN_ELEMENT_THEORY = SGP/SGP4

EPOCH          = 2026-02-02T07:08:46.462272
MEAN_MOTION    = 14.92223081
ECCENTRICITY   = .00171928
INCLINATION    = 74.9711
RA_OF_ASC_NODE = 252.0848
ARG_OF_PERICENTER = 200.2258
MEAN_ANOMALY   = 159.8251

EPHEMERIS_TYPE = 0
CLASSIFICATION_TYPE = U
NORAD_CAT_ID   = 39358
ELEMENT_SET_NO = 999
REV_AT_EPOCH   = 66622
BSTAR          = .14787722E-3
MEAN_MOTION_DOT = .1482E-4
MEAN_MOTION_DDOT = 0

