ALOS (DAICHI)           
1 28931U 06002A   26033.23765041  .00001485  00000+0  25768-3 0  9991
2 28931  98.1162 349.3880 0002116  72.2399 287.9038 14.69686266 68273
H-2A R/B                
1 28932U 06002B   26033.29795715  .00007599  00000+0  38896-3 0  9997
2 28932  98.2351 177.3149 0053292   2.8734 357.2792 15.15701136 89070
RESURS-DK 1             
1 29228U 06021A   26033.22268800  .00002946  00000+0  17481-3 0  9998
2 29228  69.9349 328.7509 0005024 210.4605 149.6270 15.12522134 82160
CZ-4B R/B               
1 29507U 06046C   26033.11515897  .00004276  00000+0  21981-3 0  9992
2 29507  97.5661  78.1166 0034361  33.3576 326.9812 15.16506185 54651
CZ-2C R/B               
1 31114U 07010B   26033.28938273  .00000116  00000+0  72025-4 0  9991
2 31114  98.3971 148.3466 0059627  38.1075 322.4297 14.20233436974696
COSMO-SKYMED 1          
1 31598U 07023A   26033.29085001  .00003267  00000+0  29473-3 0  9992
2 31598  97.8856 224.0484 0001390  78.4050 281.7327 14.96248260  9610
COSMOS 2428             
1 31792U 07029A   26033.13702700  .00000390  00000+0  23497-3 0  9993
2 31792  70.9400 277.9746 0006848 316.8493  43.2091 14.12927445959074
SL-16 R/B               
1 31793U 07029B   26033.08432627  .00000303  00000+0  18159-3 0  9999
2 31793  70.9730 247.2290 0001810 272.9333 211.3282 14.14825131960336
KORONAS-FOTON           
1 33504U 09003A   26033.22249426  .00010257  00000+0  23636-3 0  9999
2 33504  82.4329 312.7194 0009048 290.2511  69.7762 15.42395861940276
CZ-2C R/B               
1 37731U 11030B   26032.87411444  .00001461  00000+0  19038-3 0  9997
2 37731  97.8483 350.8745 0054132 106.3799 312.2435 14.81081079784798
H-2A R/B                
1 38341U 12025E   26033.25580091  .00003688  00000+0  33757-3 0  9995
2 38341  98.4677 357.4924 0046457  69.3351 291.2840 14.94851868742923
SHIJIAN-16 (SJ-16)      
1 39358U 13057A   26033.29775998  .00001482  00000+0  14788-3 0  9999
2 39358  74.9711 252.0848 0017192 200.2258 159.8251 14.92223081666222
